IXPE                    
1 49954U 21121A   23300.23777926  .00006909  00000+0  54012-3 0  9997
2 49954   0.2314 325.6212 0009963  53.1868 341.2292 14.95243974102804
